hillnumber,hillname,region,parent,classification,metres,gridref,latitude,longitude,wainwright
2319,Skiddaw,34A,,Ma;F;Sim;Hew; N;W;B;Sy,931,NY260290,54.651391,-3.147761,1
2320,Blencathra - Hallsfell Top,34A,,Ma;Sim;Hew;N; W;B;Sy;Fel,867.8,NY323277,54.639949,-3.049789,1
2321,Skiddaw Little Man,34A,2319,Sim;Hew;N;W; B;Sy;Fel,865,NY266277,54.639911,-3.137629,1
2325,Carl Side,34A,2319,Sim;Hew;N;W; B;Sy;Fel,746,NY254280,54.642398,-3.155984,1
2326,Long Side,34A,2319,Sim;Hew;N;W; B;Sy;Fel,734,NY248284,54.645505,-3.165618,1
2327,Lonscale Fell,34A,2319,Sim;Hew;N;W; B;Sy;Fel,715,NY285271,54.634357,-3.108518,1
2328,Knott,34A,,Ma;Sim;Hew;N; W;B;Sy;Fel,710,NY296329,54.686982,-3.093322,1
2329,Bowscale Fell,34A,2320,Sim;Hew;N;W; B;Sy;Fel,702,NY333305,54.665538,-3.035037,1
2330,Ullock Pike,34A,2319,W;B;Sy;Fel; xN,690,NY244287,54.64827,-3.172486,1
2331,Great Calva,34A,2328,Hu;Sim;Hew;N; sMa;W;B;Sy,690,NY290311,54.670761,-3.101073,1
2332,Bannerdale Crags,34A,2320,Sim;Hew;N;W; B;Sy;Fel,683,NY335290,54.65195,-3.031747,1
2333,Bakestall,34A,2319,W;B;Sy;Fel,673,NY266308,54.667426,-3.139049,1
2336,Carrock Fell,34A,2328,Sim;Hew;N;sHu; W;B;Sy;Fel,663,NY341336,54.693484,-3.02287,1
2337,High Pike (Caldbeck),34A,2328,Sim;Hew;N;W; B;Sy;Fel,658,NY318350,54.705407,-3.058742,1
2338,Great Sca Fell,34A,2328,W;B;Sy;Fel; xN,651,NY291339,54.695145,-3.100989,1
2340,Mungrisdale Common,34A,2320,W;Sy,633,NY310292,54.653432,-3.070132,1
2344,Brae Fell,34A,2328,W;B;Sy;Fel,586,NY288351,54.70642,-3.105361,1
2345,Lord's Seat,34A,,Ma;5;Dew;W; B;Sy;Fel,552,NY204265,54.627823,-3.233984,1
2346,Meal Fell,34A,2328,5;Dew;W;B; Sy;Fel,550,NY283337,54.693795,-3.113923,1
2347,Great Cockup,34A,2328,5;Dew;sHu;W; B;Sy;Fel,526,NY273333,54.689677,-3.128766,1
2348,Souther Fell,34A,2320,5;Dew;W;B; Sy;Fel,522,NY354291,54.653236,-3.001663,1
2349,Dodd (Skiddaw),34A,2319,Hu;5;Dew;W; B;Sy;Fel,502,NY244273,54.63561,-3.172122,1
2350,Longlands Fell,34A,2328,4;W;B;Sy; Fel,483,NY275354,54.708411,-3.125313,1
2351,Binsey,34A,,Ma;4;W;B; Sy;Fel,447,NY225355,54.708795,-3.204188,1
2352,Latrigg,34A,2319,3;W;B;Sy; Fel,368,NY279247,54.6123,-3.117565,1
2353,Faulds Brow,34A,2328,WO;Sy,344,NY299407,54.7565,-3.090144,0
2354,St. John's Hill [Caermote Hill N Top],34A,2351,WO,285,NY196376,54.727574,-3.249918,0
2355,Watch Hill [Setmurthy Common],34A,,Ma;2;WO,254,NY159318,54.674412,-3.305448,0
2356,Clints Crags (Wainwright summit),34A,2351,WO,245,NY159352,54.705329,-3.306286,0
2357,Dunmallet [Dunmallard Hill],34C,2598,2;WO,240,NY467246,54.614076,-2.825628,0
2358,Watch Hill,34A,2355,WO,235,NY149318,54.674803,-3.319931,0
2359,Scafell Pike,34B,,Ma;F;Sim;Hew; N;W;B;Sy,978.07,NY215072,54.454263,-3.211682,1
2360,Scafell,34B,2359,Hu;F;Sim;Hew; N;W;B;Sy,963.9,NY206064,54.447498,-3.224731,1
2364,Great End,34B,2359,Sim;Hew;N;W; B;Sy;Fel,909.5,NY226083,54.46494,-3.194548,1
2365,Bowfell,34B,2359,Hu;Sim;Hew;N; sMa;W;B;Sy,902.9,NY244064,54.447834,-3.166227,1
2367,Great Gable,34B,,Ma;Sim;Hew;N; W;B;Sy;Fel,899,NY211103,54.482084,-3.219296,1
2368,Pillar,34B,,Ma;Sim;Hew;N; W;B;Sy;Fel,892,NY171121,54.497479,-3.281134,1
2369,Esk Pike,34B,2359,Hu;Sim;Hew;N; W;B;Sy;Fel,885,NY236075,54.457172,-3.179219,1
2371,Crinkle Crags - Long Top [Second Crinkle],34B,2359,Hu;Sim;Hew;N; W;B;Sy;Fel,859,NY248048,54.433704,-3.159813,1
2372,Grasmoor,34B,,Ma;Sim;Hew;N; W;B;Sy;Fel,851.6,NY174203,54.571635,-3.277905,1
2373,Scoat Fell,34B,2368,Sim;Hew;N;W; B;Sy;Fel,841,NY159113,54.490904,-3.299224,1
2374,Crag Hill [Eel Crag],34B,2372,Hu;Sim;Hew;N; W;B;Sy;Fel,839.2,NY192203,54.571762,-3.250234,1
2378,Red Pike (Wasdale),34B,2368,Sim;Hew;N;W; B;Sy;Fel,826,NY165106,54.483922,-3.289879,1
2379,Steeple,34B,2368,N;sSim;W;B; Sy;Fel,819,NY157116,54.493389,-3.302174,1
2382,Lingmell,34B,2359,Sim;Hew;N;W; B;Sy;Fel,807,NY209081,54.462803,-3.2213,1
2383,Kirk Fell,34B,,Ma;Sim;Hew;N; W;B;Sy;Fel,802,NY194104,54.483323,-3.244123,1
2384,Green Gable,34B,2367,Sim;Hew;N;W; B;Sy;Fel,801,NY214107,54.485699,-3.213769,1
2385,Haycock,34B,2368,Sim;Hew;N;sHu; W;B;Sy;Fel,797,NY144107,54.484568,-3.321576,1
2386,Grisedale Pike,34B,,Ma;Sim;Hew;N; W;B;Sy;Fel,791,NY198225,54.591745,-3.242071,1
2388,Allen Crags,34B,2359,Sim;Hew;N;W; B;Sy;Fel,785,NY236085,54.466367,-3.179175,1
2389,Glaramara,34B,2359,Hu;Sim;Hew;N; W;B;Sy;Fel,783,NY245104,54.483839,-3.165338,1
2393,Sail,34B,2372,Sim;Hew;N;W; B;Sy;Fel,773,NY198202,54.571328,-3.241821,1
2394,Wandope,34B,2372,Sim;Hew;N;W; B;Sy;Fel,773.9,NY188197,54.566272,-3.257089,1
2395,Hopegill Head,34B,2386,Sim;Hew;N;sHu; W;B;Sy;Fel,770,NY185221,54.588082,-3.26166,1
2396,High Raise [High Raise (High White Stones)],34B,,Ma;Sim;Hew;N; W;B;Sy;Fel,762,NY280095,54.475962,-3.111268,1
2397,Slight Side,34B,2359,W;B;Sy;Fel; xN,762,NY209050,54.434392,-3.219575,1
2399,Red Pike (Buttermere),34B,2381,Sim;Hew;N;W; B;Sy;Fel,755.3,NY160154,54.527438,-3.298545,1
2400,Dale Head,34B,,Ma;Sim;Hew;N; W;B;Sy;Fel,753,NY222153,54.527238,-3.202284,1
2401,High Crag (Buttermere),34B,2381,Sim;Hew;N;W; B;Sy;Fel,744,NY180139,54.514628,-3.267412,1
2405,Robinson,34B,,Ma;Sim;Hew;N; W;B;Sy;Fel,737,NY201168,54.540812,-3.235082,1
2406,Harrison Stickle,34B,2396,Sim;Hew;N;W; B;Sy;Fel,736,NY281074,54.456898,-3.109455,1
2407,Sergeant Man,34B,2396,W;B;Sy;Fel; xN,736,NY286088,54.470362,-3.102552,1
2411,Hindscarth,34B,2400,Sim;Hew;N;W; B;Sy;Fel,727,NY215165,54.537828,-3.213755,1
2412,Ullscarf,34B,2396,Hu;Sim;Hew;N; W;B;Sy;Fel,726,NY291121,54.499923,-3.095518,1
2413,Thunacar Knott,34B,2396,N;sSim;W;B; Sy;Fel,723,NY279079,54.462189,-3.112653,1
2416,Brandreth,34B,2367,Sim;Hew;N;W; B;Sy;Fel,715,NY214119,54.496479,-3.214274,1
2417,Pike of Stickle,34B,2396,Sim;Hew;N;W; B;Sy;Fel,708.4,NY273073,54.456393,-3.121381,1
2418,Whiteside [Whiteside West Top],34B,2386,N;W;B;Sy; Fel,707,NY170219,54.585912,-3.285161,1
2419,Pike of Blisco,34B,,Ma;Sim;Hew;N; W;B;Sy;Fel,705,NY271042,54.428111,-3.124925,1
2422,Cold Pike,34B,2359,Sim;Hew;N;W; B;Sy;Fel,701,NY262036,54.4226,-3.137582,1
2423,Pavey Ark,34B,2396,N;W;B;Sy; Fel,700,NY284079,54.461494,-3.105214,1
2424,Grey Knotts,34B,2367,N;W;B;Sy; Fel,697,NY217125,54.502362,-3.210186,1
2425,Caw Fell,34B,2368,N;sSim;W;B; Sy;Fel,697,NY132109,54.486868,-3.341256,1
2427,Seatallan,34B,,Ma;Sim;Hew;N; W;B;Sy;Fel,692,NY140084,54.464065,-3.328274,1
2430,Loft Crag,34B,2396,N;sSim;W;B; Sy;Fel,681.7,NY277071,54.454429,-3.115991,1
2432,Scar Crags,34B,2372,Sim;Hew;N;W; B;Sy;Fel,672,NY208206,54.574968,-3.225966,1
2434,Whiteless Pike,34B,2372,Sim;Hew;N;W; B;Sy;Fel,660,NY180189,54.559367,-3.26931,1
2436,High Spy,34B,2400,Hu;Sim;Hew;N; sMa;W;B;Sy,653.1,NY234162,54.535559,-3.185141,1
2437,Rossett Pike,34B,2359,Sim;Hew;N;W; B;Sy;Fel,651,NY249075,54.457935,-3.159804,1
2438,Fleetwith Pike,34B,2367,Hu;Sim;Hew;N; W;B;Sy;Fel,648.9,NY205141,54.516562,-3.22818,1
2439,Base Brown,34B,2367,Sim;Hew;N;W; B;Sy;Fel,646,NY225114,54.492581,-3.197762,1
2442,Causey Pike,34B,2372,Sim;Hew;N;W; B;Sy;Fel,637,NY218208,54.576817,-3.210133,1
2445,Starling Dodd,34B,2381,Sim;Hew;N;W; B;Sy;Fel,633,NY142157,54.529725,-3.327207,1
2450,Yewbarrow,34B,2368,Hu;Sim;Hew;N; sMa;W;B;Sy,627,NY173084,54.464889,-3.27686,1
2451,Great Borne,34B,2381,Hu;Sim;Hew;N; W;B;Sy;Fel,616,NY123163,54.534903,-3.355442,1
2454,Illgill Head,34B,,Ma;Sim;Dew;W; B;Sy;Fel,608.8,NY168049,54.43293,-3.282634,1
2455,High Seat,34B,2396,Hu;Sim;Dew;W; B;Sy;Fel,608,NY287180,54.552632,-3.103765,1
2456,Seathwaite Fell (Wainwright summit),34B,2359,W;B;Sy;Fel,601,NY229101,54.481131,-3.191438,1
2457,Haystacks (Buttermere),34B,2367,5;Dew;W;B; Sy;Fel,597,NY193131,54.507243,-3.247321,1
2458,Bleaberry Fell,34B,2396,5;Dew;W;B; Sy;Fel,590,NY285195,54.56637,-3.106177,1
2459,Middle Fell,34B,2427,Hu;5;Dew;W; B;Sy;Fel,582,NY150072,54.453249,-3.311327,1
2460,Ard Crags,34B,2372,Hu;5;Dew;W; B;Sy;Fel,581,NY206197,54.566938,-3.228123,1
2461,Maiden Moor,34B,2400,W;B;Sy;Fel,575,NY236181,54.553174,-3.181585,1
2462,Blake Fell,34B,,Ma;5;Dew;W; B;Sy;Fel,573,NY110196,54.564569,-3.377198,1
2463,Sergeant's Crag,34B,2396,5;Dew;W;B; Sy;Fel,571,NY273113,54.492531,-3.122463,1
2464,Outerside,34B,2372,5;Dew;W;B; Sy;Fel,568,NY211214,54.582169,-3.222159,1
2465,Knott Rigg,34B,2372,5;Dew;W;B; Sy;Fel,556,NY197188,54.558701,-3.242613,1
2466,Steel Fell [Dead Pike - Steel Fell],34B,2396,5;Dew;W;B; Sy;Fel,553,NY319111,54.49115,-3.052179,1
2467,Rosthwaite Fell - Bessyboot,34B,2359,5;Dew;W;B; Sy;Fel,551,NY258124,54.502198,-3.14685,1
2468,Tarn Crag (Easedale),34B,2396,W;B;Sy;Fel,549,NY303093,54.474295,-3.076006,1
2469,Hard Knott,34B,,Ma;5;Dew;W; B;Sy;Fel,549,NY231023,54.411026,-3.185029,1
2470,Blea Rigg,34B,2396,W;B;Sy;Fel,541,NY301078,54.461076,-3.078806,1
2471,Lank Rigg,34B,2368,Hu;5;Dew;W; B;Sy;Fel,541,NY091119,54.494811,-3.403973,1
2472,Calf Crag,34B,2396,5;Dew;W;B; Sy;Fel,537,NY301104,54.484231,-3.079493,1
2473,Whin Rigg (Wasdale),34B,2454,5;Dew;W;B; Sy;Fel,537,NY151035,54.420162,-3.309916,1
2474,Gavel Fell,34B,2462,5;Dew;W;B; Sy;Fel,526,NY116183,54.552984,-3.366804,1
2475,Eagle Crag,34B,2396,s5;W;B;Sy; Fel,525,NY275121,54.499056,-3.12048,1
2476,Crag Fell,34B,2368,Hu;5;Dew;W; B;Sy;Fel,523,NY097143,54.516717,-3.396073,1
2477,Whinlatter [Brown How - Whinlatter],34A,2345,W;B;Sy;Fel,517,NY191251,54.614855,-3.254033,1
2478,High Tove,34B,2396,W;B;Sy;Fel,515,NY289165,54.53886,-3.100209,1
2479,Mellbreak [Mellbreak South Top],34B,,Ma;5;Dew;W; B;Sy;Fel,512,NY148186,54.555581,-3.318258,1
2480,Broom Fell,34A,2345,s5;W;B;Sy; Fel,511,NY194271,54.633407,-3.249491,1
2481,Hen Comb,34B,2462,Hu;5;Dew;sMa; W;B;Sy;Fel,509,NY132181,54.550848,-3.343261,1
2482,Grike,34B,2368,4;W;B;Sy; Fel,488,NY084140,54.513766,-3.41488,1
2483,Armboth Fell,34B,2396,W,475,NY295157,54.532026,-3.089686,1
2484,Burnbank Fell,34B,2462,W;B;Sy,475,NY110209,54.575943,-3.37834,1
2485,Lingmoor Fell [Lingmoor Fell - Brown How],34B,,Ma;4;W;B; Sy;Fel,470,NY302046,54.432067,-3.07641,1
2486,Barf,34A,2345,4;W;B;Sy; Fel,469,NY214267,54.629665,-3.218084,1
2487,Raven Crag,34B,2396,4;W;B;Sy; Fel,461,NY303187,54.559231,-3.07872,1
2488,Barrow,34B,2372,4;W;B;Sy; Fel,455,NY227218,54.58566,-3.19752,1
2489,Graystones,34A,2345,W,452,NY176266,54.627991,-3.277642,1
2490,Catbells,34B,2400,4;W;B;Sy; Fel,451,NY244198,54.568316,-3.1707,1
2491,Great Crag (Stonethwaite),34B,2396,4;W;B;Sy; Fel,449,NY270146,54.522189,-3.129333,1
2493,Low Fell,34B,,Ma;4;W;B; Sy;Fel,423,NY137226,54.591358,-3.336608,1
2494,Gibson Knott,34B,2396,W;B;Sy;Fel,420,NY316100,54.48107,-3.055825,1
2495,Fellbarrow - Mosser Fell,34B,2493,4;W;B;Sy; Fel,416,NY132242,54.60582,-3.344699,1
2496,Grange Fell [Brund Fell],34B,2396,4;W;B;Sy; Fel,417.2,NY264162,54.536408,-3.137963,1
2497,Buckbarrow,34B,2427,W;B;Sy;Fel,423,NY135061,54.443165,-3.334275,1
2498,Helm Crag,34B,2396,4;W;B;Sy; Fel,405,NY326093,54.475026,-3.040823,1
2499,Silver How,34B,2396,3;W;B;Sy; Fel,395,NY324066,54.450696,-3.04289,1
2500,Walla Crag,34B,2396,W;B;Sy;Fel,379,NY276212,54.581608,-3.120377,1
2501,Ling Fell,34A,2345,3;sHu;W;B; Sy;Fel,373,NY179285,54.645249,-3.272325,1
2502,Rannerdale Knotts,34B,2372,3;W;B;Sy; Fel,355,NY167182,54.552643,-3.289032,1
2503,Sale Fell,34A,2345,Hu;3;W;B; Sy;Fel,359,NY194296,54.655627,-3.250157,1
2505,Dent,34B,2504,WO,346,NY037130,54.503594,-3.488027,0
2506,Boat How,34B,2454,3;WO;B;Sy; Fel,337,NY177034,54.419381,-3.26945,0
2507,Loughrigg Fell,34B,,Ma;3;W;B; Sy;Fel,335,NY346051,54.437454,-3.008355,1
2508,Black Fell,34D,2667,Hu;3;W;B; Sy;Fel,323,NY340015,54.405503,-3.017955,1
2509,Ponsonby Fell,34B,2368,3;WO;B;Sy,315,NY081070,54.450353,-3.417366,0
2510,Castle Crag,34B,2400,2;W;Sy;Fel,290,NY249159,54.533181,-3.161612,1
2511,Cold Fell,34B,2368,2;WO,293,NY058092,54.469439,-3.454829,0
2512,Flat Fell,34B,2368,2;WO,272,NY052137,54.509889,-3.464963,0
2514,Irton Pike,34B,2454,WO,229,NY120015,54.401785,-3.356009,0
2515,Helvellyn,34C,,Ma;F;Sim;Hew; N;W;B;Sy,949.8,NY342151,54.527001,-3.017514,1
2517,Nethermost Pike,34C,2515,N;sSim;W;B; Sy;Fel,891.3,NY343142,54.518993,-3.015446,1
2518,Catstye Cam,34C,2515,Sim;Hew;N;W; B;Sy;Fel,889.6,NY348158,54.533472,-3.008944,1
2520,Raise,34C,2515,Sim;Hew;N;sHu; W;B;Sy;Fel,882.7,NY342174,54.547718,-3.017473,1
2521,Fairfield,34C,,Ma;Sim;Hew;N; W;B;Sy;Fel,873.3,NY358117,54.497054,-2.991648,1
2523,White Side,34C,2515,Sim;Hew;N;W; B;Sy;Fel,863.2,NY337166,54.540904,-3.025048,1
2524,Dollywaggon Pike,34C,2515,Sim;Hew;N;W; B;Sy;Fel,858.5,NY346130,54.508693,-3.011175,1
2525,Great Dodd,34C,2515,Hu;Sim;Hew;N; W;B;Sy;Fel,857,NY342205,54.575689,-3.019377,1
2526,Stybarrow Dodd,34C,2515,Sim;Hew;N;W; B;Sy;Fel,843.7,NY343189,54.561137,-3.017405,1
2527,St Sunday Crag,34C,,Ma;Sim;Hew;N; W;B;Sy;Fel,841.2,NY369133,54.51194,-2.975836,1
2528,High Street,34C,,Ma;Sim;Hew;N; W;B;Sy;Fel,828,NY440110,54.491691,-2.86486,1
2529,Hart Crag,34C,2521,Sim;Hew;N;W; B;Sy;Fel,823.1,NY368112,54.492752,-2.976954,1
2530,High Raise (High Street),34C,2528,Sim;Hew;N;W; B;Sy;Fel,802,NY448134,54.513367,-2.853779,1
2532,Rampsgill Head,34C,2528,Sim;Hew;N;W; B;Sy;Fel,792,NY443128,54.508092,-2.861252,1
2533,Dove Crag,34C,2521,Sim;Hew;N;W; B;Sy;Fel,792,NY374104,54.4854,-2.96693,1
2534,Watson's Dodd,34C,2515,W;B;Sy;Fel,789,NY335195,54.566917,-3.028995,1
2535,Thornthwaite Crag,34C,2528,Sim;Hew;N;W; B;Sy;Fel,784,NY431100,54.482611,-2.878976,1
2536,Kidsty Pike,34C,2528,N;W;B;Sy; Fel,780,NY447125,54.505513,-2.854959,1
2537,Harter Fell (Mardale),34C,2528,Hu;Sim;Hew;N; sMa;W;B;Sy,779,NY459093,54.476414,-2.835323,1
2538,Red Screes,34C,,Ma;Sim;Hew;N; W;B;Sy;Fel,776,NY396087,54.47058,-2.932572,1
2539,Great Rigg,34C,2521,Sim;Hew;N;W; B;Sy;Fel,766.1,NY355104,54.484906,-2.995676,1
2540,Stony Cove Pike [Caudale Moor],34C,,Ma;Sim;Hew;N; W;B;Sy;Fel,763,NY417100,54.48206,-2.90008,1
2541,Mardale Ill Bell,34C,2528,W;B;Sy;Fel; xN,760,NY447101,54.483418,-2.854112,1
2542,Ill Bell,34C,2528,Hu;Sim;Hew;N; W;B;Sy;Fel,757,NY436077,54.462017,-2.870837,1
2543,Hart Side,34C,2515,N;sSim;W;B; Sy;Fel,756,NY359197,54.568719,-2.992938,1
2544,The Knott (High Street),34C,2528,W;B;Sy;xN,739,NY437126,54.506316,-2.870821,1
2545,Seat Sandal,34C,,Ma;Sim;Hew;N; W;B;Sy;Fel,736.8,NY344115,54.494857,-3.014027,1
2546,Kentmere Pike,34C,2528,Sim;Hew;N;W; B;Sy;Fel,730,NY465077,54.462673,-2.826033,1
2547,Clough Head,34C,2515,Hu;Sim;Hew;N; W;B;Sy;Fel,726,NY333225,54.593661,-3.032362,1
2548,Froswick,34C,2528,Sim;Hew;N;W; B;Sy;Fel,720,NY435085,54.468949,-2.872959,1
2549,Birkhouse Moor,34C,2515,N;sSim;W;B; Sy;Fel,717.6,NY363159,54.535033,-2.98532,1
2550,Branstree,34C,2528,Hu;Sim;Hew;N; W;B;Sy;Fel,713,NY478099,54.482402,-2.807168,1
2551,Yoke,34C,2528,Sim;Hew;N;W; B;Sy;Fel,706,NY437067,54.452928,-2.868716,1
2552,Gray Crag,34C,2528,N;W;B;Sy; Fel,699,NY427117,54.497475,-2.885379,1
2553,Rest Dodd,34C,2528,Hu;Sim;Hew;N; W;B;Sy;Fel,696,NY432136,54.514937,-2.878033,1
2554,Sheffield Pike,34C,2515,Sim;Hew;N;sHu; W;B;Sy;Fel,676.1,NY369181,54.554936,-2.977002,1
2556,Loadpot Hill,34C,2528,Sim;Hew;N;W; B;Sy;Fel,672,NY456180,54.554737,-2.842087,1
2557,Wether Hill,34C,2528,W;B;Sy;Fel; xN,671,NY455167,54.543239,-2.842453,1
2559,Tarn Crag (Sleddale),34C,,Ma;Sim;Hew;N; W;B;Sy;Fel,664,NY488078,54.463458,-2.790658,1
2561,Place Fell,34C,,Ma;Sim;Hew;N; W;B;Sy;Fel,657,NY405169,54.544269,-2.920741,1
2562,High Pike (Scandale),34C,2521,W;B;Sy;Fel,656,NY374088,54.470976,-2.966791,1
2563,Selside Pike,34C,2528,Sim;Hew;N;W; B;Sy;Fel,655,NY490111,54.49308,-2.787925,1
2564,Middle Dodd,34C,2538,W;B;Sy;Fel,654,NY397095,54.477939,-2.931566,1
2565,Grey Crag [Sleddale Fell],34C,2559,Sim;Hew;N;W; B;Sy;Fel,638,NY497072,54.457874,-2.777191,1
2566,Little Hart Crag [Little Hart Crag - West Top],34C,2521,Sim;Hew;N;W; B;Sy;Fel,637,NY387100,54.481916,-2.947169,1
2570,Birks,34C,2527,N;sSim;W;B; Sy;Fel,624,NY380143,54.520711,-2.959051,1
2572,Hartsop Dodd,34C,2540,N;sSim;W;B; Sy;Fel,618,NY411118,54.498538,-2.910448,1
2573,Heron Pike (Rydal),34C,2521,N;sSim;W;B; Sy,612,NY355083,54.466072,-2.995126,1
2574,Shipman Knotts,34C,2528,W;B;Sy;Fel,587,NY472062,54.448577,-2.814707,1
2575,Great Yarlside,34C,2559,WO;B,591,NY525075,54.461514,-2.734065,0
2576,Howes,34C,2528,WO,583,NY498103,54.486263,-2.776063,0
2577,The Nab,34C,2528,5;Dew;W;B; Sy,576,NY434151,54.528893,-2.875675,1
2578,Hartsop Above How [Gill Crag - Hartsop Above How],34C,2521,s5;W;B;Sy; Fel,584,NY383120,54.499595,-2.953939,1
2579,Angletarn Pikes [Angletarn Pikes North Top],34C,2528,5;Dew;W;B; Sy;Fel,567,NY413148,54.525312,-2.907999,1
2580,Great Saddle Crag,34C,2559,WO;B;Sy,560,NY526086,54.471093,-2.732755,0
2581,Wasdale Pike,34C,2559,WO;B;Sy,565,NY536084,54.469706,-2.716868,0
2582,Brock Crags (Wainwright),34C,2528,W;B;Sy;Fel,561.2,NY416136,54.514891,-2.902593,1
2583,Great Mell Fell,34C,,Ma;5;Dew;W; B;Sy;Fel,537,NY396253,54.619846,-2.935641,1
2584,Arthur's Pike,34C,2528,W;B;Sy;Fel,533,NY460206,54.578426,-2.835799,1
2585,High Wether Howe,34C,2559,5;Dew;WO;B; Sy,531,NY514109,54.491324,-2.750299,0
2586,White Howe (Bannisdale),34C,2559,5;Dew;WO;B; Sy,530,NY523041,54.430964,-2.735831,0
2587,Lord's Seat (Crookdale) [Lord's Seat - High House Fell],34C,2559,5;Dew;WO;B; Sy,524,NY518066,54.452626,-2.744224,0
2588,Bonscale Pike,34C,2528,W;B;Sy;Fel,524,NY453200,54.573028,-2.846935,1
2589,High Hartsop Dodd,34C,2521,W;B;Sy;Fel,519,NY393107,54.488614,-2.93769,1
2590,Sallows,34C,2528,5;Dew;W;B; Sy;Fel,516,NY436039,54.428122,-2.869995,1
2591,Little Yarlside,34C,2559,WO;B;Sy,518,NY530071,54.457704,-2.724988,0
2592,Seat Robert,34C,2559,5;Dew;WO;B; Sy,515,NY526114,54.495755,-2.732702,0
2593,Capplebarrow,34C,2559,s5;WO;B;Sy,513,NY508035,54.424929,-2.759814,0
2594,Fewling Stones,34C,2559,WO;Sy,509,NY513117,54.498962,-2.753358,0
2595,Beda Fell [Beda Head],34C,2528,5;Dew;W;B; Sy;Fel,509,NY428171,54.54649,-2.884399,1
2596,Low Pike,34C,2521,W;B;Sy;Fel,508,NY373078,54.462069,-2.967985,1
2597,Sleddale Pike,34C,2559,WO;B;Sy,506,NY535094,54.478055,-2.718418,0
2598,Little Mell Fell,34C,,Ma;5;Dew;W; B;Sy;Fel,505,NY423240,54.608024,-2.894465,1
2599,Hare Shaw,34C,2528,WO;B;Sy,503,NY497131,54.511158,-2.777492,0
2600,Ulthwaite Rigg,34C,2559,WO;B;Sy,502,NY514093,54.477033,-2.750562,0
2601,Stone Arthur,34C,2521,W;B;Sy;Fel,504,NY347092,54.474276,-3.008366,1
2602,High House Bank,34C,2559,4;WO;B;Sy,495,NY543048,54.436904,-2.705888,0
2604,Robin Hood,34C,2559,4;WO;B;Sy,493,NY530058,54.446034,-2.725722,0
2605,Bannisdale Fell - Long Crag,34C,2559,4;WO;B;Sy,493,NY515052,54.440381,-2.747857,0
2606,Nabs Moor,34C,2528,WO,493,NY503111,54.49283,-2.768174,0
2607,Baystones [Wansfell],34C,2540,Hu;4;sMa;W; Fel,486.9,NY403051,54.438194,-2.921751,1
2608,Whatshaw Common,34C,2559,4;WO;B;Sy,490,NY541061,54.449079,-2.707917,0
2609,Sour Howes,34C,2528,4;W;B;Sy,483,NY427032,54.421166,-2.883579,1
2610,Gowbarrow Fell (Wainwright summit),34C,2598,W;B;Sy;Fel,481.2,NY407218,54.58811,-2.918201,1
2611,Nab Scar,34C,2521,W;B;Sy;Fel,450,NY355072,54.456414,-2.995833,1
2612,Glenridding Dodd,34C,2515,4;W;B;Sy; Fel,442,NY380175,54.54947,-2.959246,1
2613,Great Ladstones,34C,2559,WO;Sy,440,NY532123,54.504435,-2.724116,0
2614,Arnison Crag,34C,2527,4;W;B;Sy; Fel,433,NY393149,54.526364,-2.938524,1
2615,Steel Knotts [Pikeawassa - Steel Knotts],34C,2528,4;W;B;Sy; Fel,432,NY440181,54.555245,-2.866807,1
2616,Brunt Knott,34C,2528,WO;B;Sy,427,NY484006,54.398481,-2.795661,0
2617,Hollow Moor [Green Quarter Fell],34C,2528,4;WO;B;Sy,426,NY469040,54.428986,-2.819729,0
2618,Harper Hills,34C,2528,WO;B;Sy,414,NY509142,54.521079,-2.759373,0
2619,Hugh's Laithes Pike,34C,2528,WO;Sy,419,NY502151,54.529284,-2.770806,0
2620,Todd Fell,34C,2559,WO;B;Sy,401,NY512020,54.411634,-2.753019,0
2621,Langhowe Pike,34C,2559,WO,401,NY528134,54.514402,-2.730008,0
2622,Whiteside Pike,34C,2559,3;WO;B;Sy,397,NY520015,54.406817,-2.739882,0
2623,Hallin Fell,34C,,Ma;3;W;B; Sy;Fel,388,NY433198,54.570412,-2.878498,1
2624,Heughscar Hill,34C,2528,3;WO;B;Sy,375,NY488231,54.601058,-2.794049,0
2625,Lamb Pasture,34C,2559,WO;B;Sy,367,NY534020,54.412202,-2.718746,0
2626,Troutbeck Tongue,34C,2528,3;W;B;Sy; Fel,364,NY422064,54.449952,-2.892312,1
2627,High Rigg [Naddle Fell],34C,,Ma;3;W;B; Sy;Fel,357,NY308219,54.588432,-3.071568,1
2628,Knipescar Common [Knipe Scar],34C,2559,WO;B;Sy,342,NY526191,54.565069,-2.733557,0
2629,Scalebarrow Knott,34C,2528,WO;B;Sy,338,NY519153,54.530821,-2.743482,0
2630,High Knott,34C,2528,2;WO,275,NY454001,54.393719,-2.841928,0
2631,Hugill Fell (Wainwright summit),34C,2528,WO,265,SD462994,54.387397,-2.829526,0
2632,Reston Scar,34C,2528,WO,255,SD460987,54.381758,-2.832692,0
2633,Grandsire,34D,2528,2;WO,251,SD432972,54.367856,-2.875508,0
2634,The Old Man of Coniston [Coniston Old Man],34D,,Ma;Sim;Hew;N; W;B;Sy;Fel,802.4,SD272978,54.370658,-3.121445,1
2635,Swirl How,34D,2634,Hu;Sim;Hew;N; W;B;Sy;Fel,802.4,NY272005,54.395239,-3.12153,1
2636,Brim Fell,34D,2634,N;sSim;W;B; Sy;Fel,796,SD270985,54.377283,-3.124197,1
2637,Great Carrs,34D,2634,N;sSim;W;B; Sy;Fel,785,NY270009,54.398777,-3.124738,1
2638,Dow Crag,34D,2634,Hu;Sim;Hew;N; W;B;Sy;Fel,778,SD262977,54.3703,-3.136659,1
2639,Grey Friar,34D,2634,Sim;Hew;N;W; B;Sy;Fel,773,NY260003,54.393339,-3.141054,1
2640,Wetherlam,34D,2634,Hu;Sim;Hew;N; sMa;W;B;Sy,763,NY288011,54.400488,-3.097966,1
2643,Harter Fell (Eskdale),34D,,Ma;Sim;Hew;N; W;B;Sy;Fel,654,SD218997,54.386898,-3.204538,1
2644,Walna Scar,34D,2634,N;WO;B;Sy; Fel,621,SD257963,54.357173,-3.143745,0
2646,Black Combe,34D,,Ma;Sim;Dew;WO; B;Sy;Fel,600,SD135854,54.257759,-3.328573,0
2647,Whitfell,34D,,Ma;5;Dew;WO; B;Sy;Fel,573,SD158929,54.325473,-3.294896,0
2648,Buck Barrow,34D,2647,5;Dew;WO;B; Sy;Fel,549,SD151910,54.307983,-3.304845,0
2649,Burn Moor,34D,2647,s5;WO;B;Sy,543,SD151924,54.320448,-3.305793,0
2650,Kinmont Buck Barrow,34D,2647,s5;WO;B;Sy,535,SD146909,54.307196,-3.312812,0
2651,Caw,34D,2634,Hu;5;Dew;WO; B;Sy;Fel,529,SD230944,54.339804,-3.18521,0
2652,Stainton Pike,34D,2647,s4;WO;B;Sy; Fel,498,SD152942,54.336889,-3.304822,0
2653,Yoadcastle,34D,2647,4;WO;B;Sy; Fel,494,SD156952,54.345757,-3.298456,0
2654,Woodend Height,34D,2647,WO;B;Sy,489,SD156954,54.34757,-3.298714,0
2655,Green Crag,34D,2643,Hu;4;sMa;W; B;Sy;Fel,488.7,SD200982,54.373688,-3.232801,1
2656,Hesk Fell,34D,2647,Hu;4;WO;B; Sy;Fel,477,SD176946,54.340904,-3.268861,0
2657,Stoupdale Head,34D,2646,WO;B;Sy,472,SD151873,54.274919,-3.304568,0
2658,Pikes,34D,2634,4;WO;B;Sy,469,SD237947,54.342544,-3.174305,0
2659,White Pike (Birkby Fell),34D,2647,WO;B;Sy,442,SD150956,54.349175,-3.308257,0
2660,Great Worm Crag,34D,2643,4;WO;B;Sy; Fel,427,SD194968,54.361004,-3.241809,0
2661,Green Pikes,34D,2634,WO,420,SD236950,54.345625,-3.176362,0
2662,White Combe,34D,2646,WO;B,417,SD154862,54.265211,-3.299593,0
2663,Stickle Pike,34D,2634,Hu;3;WO;B; Sy;Fel,375,SD212927,54.324643,-3.213066,0
2664,The Pike,34D,2647,3;WO;B;Sy,370,SD186934,54.329758,-3.252601,0
2669,Ulgraves,34C,2528,3;WO;Sy,333,SD511995,54.389498,-2.754493,0
2670,The Knott (Stainton Fell),34D,2647,WO;B;Sy,331,SD143951,54.344701,-3.318807,0
2671,Gummer's How,34D,,Ma;3;WO;B; Sy,321,SD390884,54.288359,-2.937913,0
2672,Rough Crag (Birker Moor),34D,2647,3;WO;B;Sy,319,SD161977,54.368414,-3.292752,0
2673,Holme Fell,34D,,Ma;3;W;B; Sy;Fel,317,NY315006,54.396301,-3.056527,1
2674,Carron Crag,34D,2667,3;WO;B;Sy,314,SD325943,54.340115,-3.039304,0
2675,Tarn Hill,34D,2634,3;WO;B;Sy,313,SD209920,54.318332,-3.216755,0
2676,Seat How (Birker Moor),34D,2647,3;WO;B;Sy,311,SD165971,54.362647,-3.285784,0
2677,Water Crag,34D,2647,3;WO;B;Sy,305,SD153974,54.36577,-3.303798,0
2678,Great Stickle,34D,2634,WO;B;Sy,305,SD211915,54.313856,-3.21318,0
2679,Burney,34D,2668,Hu;2;WO,298,SD260858,54.263103,-3.136441,0
2680,The Knott,34D,2634,WO,284,SD224919,54.31712,-3.19412,0
2681,Dunnerdale Fells,34D,2634,WO,280,SD207918,54.3163,-3.2204,0
2683,Claife Heights,34D,,Ma;2;WO,270,SD382973,54.367856,-2.952654,0
2684,Staveley Fell,34D,2671,2;WO,265,SD389868,54.273763,-2.93901,0
2685,High Light Haw,34D,2667,WO,263,SD303904,54.305117,-3.072126,0
2686,Beacon Fell,34D,2668,Hu;2;WO,255,SD278907,54.306877,-3.110996,0
2687,Blawith Knott,34D,2668,2;WO,248,SD260883,54.285809,-3.137097,0
2688,Low Light Haw,34D,2667,WO,250,SD301900,54.301605,-3.074863,0
2689,Latterbarrow,34D,2683,2;WO,244,SD367990,54.383382,-2.975833,0
2690,Orrest Head,34C,2528,2;WO,238,SD414993,54.386344,-2.903497,0
2691,Newton Fell North,34D,2671,WO,237,SD395842,54.25069,-2.929845,0
2692,Scout Scar (Wainwright summit),34D,2528,WO,233,SD486919,54.320834,-2.790765,0
2693,School Knott,34D,2528,2;WO,231.7,SD425974,54.369057,-2.885831,0
2694,Muncaster Fell - Hooker Crag,34D,19242,2;WO;Fel,231.4,SD112983,54.372911,-3.368312,0
2695,Tottlebank Height,34D,2668,WO,236,SD269885,54.287001,-3.124087,0
2696,Hampsfell (Wainwright summit),34D,2671,WO,220,SD399793,54.206563,-2.922414,0
2697,Whitbarrow - Lord's Seat,34D,,Ma;2;WO,215,SD441870,54.275996,-2.858831,0
2698,Wool Knott,34D,2668,2;WO,223,SD272896,54.297016,-3.119013,0
2699,Cunswick Scar,34D,2528,2;WO,207,SD491943,54.341732,-2.783598,0
2700,Yew Bank,34D,2668,WO,207,SD262909,54.30891,-3.135013,0
2701,Brant Fell,34D,2528,1;WO,191,SD409961,54.357402,-2.909832,0
2703,Bigland Barrow,34D,2671,WO,193,SD363839,54.247584,-2.978227,0
2704,Finsthwaite Heights,34D,2667,WO,180,SD360883,54.286973,-2.9832,0
2705,Raven's Barrow [Cartmel Fell],34D,2671,WO,152,SD412879,54.283606,-2.903459,0
2706,Humphrey Head,34D,2671,0;WO,53,SD390739,54.157947,-2.934151,0
3322,Caermote Hill,34A,2351,2;WO,289,NY195371,54.722964,-3.249822,0
3323,Newton Fell South [Dixon Heights],34D,2671,1;WO,177,SD413815,54.226381,-2.901135,0
3324,nameless (Bannisdale Horseshoe - Ancrow Brow N),34C,2559,WO;Sy,541,NY502059,54.446177,-2.767979,0
3325,Swinklebank Crag [Ancrow Brow] [nameless (Bannisdale Horseshoe)],34C,2559,5;Dew;WO;B; Sy,554,NY500049,54.437124,-2.771341,0
3326,The Forest [Borrowdale Head] [nameless (Bannisdale Horseshoe)],34C,2559,5;Dew;WO;B; Sy,528,NY527035,54.425349,-2.729611,0
3327,nameless (Green Quarter) [Hollow Moor East Top],34C,2528,WO;Sy,413,NY473042,54.43099,-2.813094,0
3328,Naddle High Forest [nameless (Naddle Horseshoe - 1)],34C,2528,WO;B;Sy,435,NY492143,54.521522,-2.785646,0
3329,Wallow Crag [nameless (Naddle Horseshoe - 2)],34C,2528,WO;B;Sy,433,NY496149,54.527178,-2.779542,0
3330,nameless (Naddle Horseshoe - 3),34C,2528,WO;Sy,395,NY505152,54.529979,-2.765966,0
3331,nameless (Potter Fell - 1) [Brunt Knott South Top],34C,2528,3;WO;Sy,395,SD489998,54.391282,-2.787529,0
3332,nameless (Potter Fell - 2) [Potter Fell],34C,2528,3;WO;Sy,390,NY496003,54.396142,-2.776779,0
3333,nameless (School Knott),34D,2528,WO,247,SD428967,54.362819,-2.881095,0
3334,Raven's Crag [nameless (Stickle Pike - Raven's Crag)],34D,2634,WO;B;Sy,361,SD223929,54.325973,-3.195084,0
3335,nameless (Top o' Selside - Brock Barrow),34D,2667,WO,221,SD298898,54.299097,-3.080022,0
3728,High Stile,34B,2381,W;B,806,NY167147,54.521522,-3.287851,1
3863,Top o' Selside (Wainwright summit),34D,2667,WO;B,334,SD308918,54.317644,-3.065227,0
9999,Keswick Moot Hall,,,,84,,,,NA
